ORBCOMM-X [-]           
1 21576U 91050C   24100.19905198  .00000394  00000+0  13207-3 0  9996
2 21576  98.3945 168.5243 0004716  68.0655 292.1035 14.42430990719755
ORBCOMM FM01 [-]        
1 23545U 95017A   24100.33760144  .00005437  00000+0  74027-3 0  9997
2 23545  69.9674  66.8823 0008950 263.6955  96.3175 14.79237115548113
ORBCOMM FM02 [-]        
1 23546U 95017B   24100.69593882  .00006049  00000+0  83034-3 0  9998
2 23546  69.9680  85.3722 0010764 259.0883 100.9055 14.78817143548113
ORBCOMM FM08 [-]        
1 25112U 97084A   24100.78338653  .00001678  00000+0  54661-3 0  9995
2 25112  45.0146 282.7991 0007911 216.5869 143.4442 14.42292708378892
ORBCOMM FM10 [-]        
1 25113U 97084B   24100.23437530  .00001728  00000+0  56269-3 0  9992
2 25113  45.0160 287.2518 0005701 186.3985 173.6793 14.42211794553796
ORBCOMM FM11 [+]        
1 25114U 97084C   24100.52759264  .00001758  00000+0  57293-3 0  9997
2 25114  45.0144 285.8960 0006469 188.3470 171.7273 14.42095304378803
ORBCOMM FM12 [-]        
1 25115U 97084D   24100.48659817  .00001552  00000+0  51135-3 0  9997
2 25115  45.0153 285.7767 0005501 188.4300 171.6459 14.42060862378599
ORBCOMM FM09 [-]        
1 25116U 97084E   24100.77430922  .00001752  00000+0  57196-3 0  9999
2 25116  45.0156 285.0817 0006631 176.9862 183.1028 14.42029552378874
